*******************************************************************************
Ephemeris / WWW_USER Mon Jul 15 19:35:43 2024 Pasadena, USA      / Horizons    
*******************************************************************************
Target body name: (2015 BP519)                    {source: JPL#11}
Center body name: Earth (399)                     {source: DE441}
Center-site name: Gemini South Obs., Cerro Pachon
*******************************************************************************
Start time      : A.D. 2018-Oct-10 22:58:00.0000 UT      
Stop  time      : A.D. 2018-Oct-11 10:01:00.0000 UT      
Step-size       : 1 minutes
*******************************************************************************
Target pole/equ : undefined
Target radii    : undefined                                                    
Center geodetic : 289.2634, -30.2406227, 2.71233  {E-lon(deg),Lat(deg),Alt(km)}
Center cylindric: 289.2634,5517.21435,-3194.81213 {E-lon(deg),Dxy(km),Dz(km)}
Center pole/equ : ITRF93                          {East-longitude positive}
Center radii    : 6378.137, 6378.137, 6356.752 km {Equator_a, b, pole_c}       
Target primary  : Sun
Vis. interferer : MOON (R_eq= 1737.400) km        {source: DE441}
Rel. light bend : Sun                             {source: DE441}
Rel. lght bnd GM: 1.3271E+11 km^3/s^2                                          
Small-body perts: Yes                             {source: SB441-N16}
Atmos refraction: NO (AIRLESS)
RA format       : HMS
Time format     : CAL 
Calendar mode   : Mixed Julian/Gregorian
RTS-only print  : NO       
EOP file        : eop.240715.p241008                                           
EOP coverage    : DATA-BASED 1962-JAN-20 TO 2024-JUL-15. PREDICTS-> 2024-OCT-07
Units conversion: 1 au= 149597870.700 km, c= 299792.458 km/s, 1 day= 86400.0 s 
Table cut-offs 1: Elevation (-90.0deg=NO ),Airmass (>38.000=NO), Daylight (YES)
Table cut-offs 2: Solar elongation (  0.0,180.0=NO ),Local Hour Angle( 0.0=NO )
Table cut-offs 3: RA/DEC angular rate (     0.0=NO )                           
*******************************************************************************
Initial IAU76/J2000 heliocentric ecliptic osculating elements (au, days, deg.):
  EPOCH=  2459185.5 ! 2020-Dec-02.00 (TDB)         Residual RMS= .076636       
   EC= .9196800569382362   QR= 35.27062259520413   TP= 2473034.2681888649      
   OM= 135.0361763364557   W=  348.1354702472351   IN= 54.13300168900849       
  Equivalent ICRF heliocentric cartesian coordinates (au, au/d):
   X= 1.527332710437156E+01  Y= 4.057000090505051E+01  Z=-2.695001507835700E+01
  VX=-2.654302427537234E-03 VY= 4.512065776218028E-05 VZ= 1.968031006040699E-03
Asteroid physical parameters (km, seconds, rotational period in hours):        
   GM= n.a.                RAD= n.a.               ROTPER= n.a.                
   H= 4.34                 G= .150                 B-V= n.a.                   
                           ALBEDO= n.a.            STYP= n.a.                  
*******************************************************************************
 Date__(UT)__HR:MN     R.A._________(ICRF)_________DEC
******************************************************
$$SOE
 2018-Oct-11 05:07     04 31 20.939840 -33 21 00.27053
 2018-Oct-11 05:08     04 31 20.937986 -33 21 00.30055
 2018-Oct-11 05:09     04 31 20.936132 -33 21 00.33057
 2018-Oct-11 05:10     04 31 20.934278 -33 21 00.36059
 2018-Oct-11 05:11     04 31 20.932424 -33 21 00.39061
 2018-Oct-11 05:12     04 31 20.930569 -33 21 00.42062
 2018-Oct-11 05:13     04 31 20.928715 -33 21 00.45064
 2018-Oct-11 05:14     04 31 20.926860 -33 21 00.48065
 2018-Oct-11 05:15     04 31 20.925005 -33 21 00.51066
 2018-Oct-11 05:16     04 31 20.923150 -33 21 00.54067
 2018-Oct-11 05:17     04 31 20.921295 -33 21 00.57068
 2018-Oct-11 05:18     04 31 20.919439 -33 21 00.60069
 2018-Oct-11 05:19     04 31 20.917584 -33 21 00.63070
 2018-Oct-11 05:20     04 31 20.915728 -33 21 00.66070
 2018-Oct-11 05:21     04 31 20.913872 -33 21 00.69071
 2018-Oct-11 05:22     04 31 20.912015 -33 21 00.72071
 2018-Oct-11 05:23     04 31 20.910159 -33 21 00.75071
 2018-Oct-11 05:24     04 31 20.908303 -33 21 00.78071
 2018-Oct-11 05:25     04 31 20.906446 -33 21 00.81070
 2018-Oct-11 05:26     04 31 20.904589 -33 21 00.84070
 2018-Oct-11 05:27     04 31 20.902732 -33 21 00.87069
 2018-Oct-11 05:28     04 31 20.900875 -33 21 00.90069
 2018-Oct-11 05:29     04 31 20.899017 -33 21 00.93068
 2018-Oct-11 05:30     04 31 20.897160 -33 21 00.96067
 2018-Oct-11 05:31     04 31 20.895302 -33 21 00.99066
 2018-Oct-11 05:32     04 31 20.893444 -33 21 01.02065
 2018-Oct-11 05:33     04 31 20.891586 -33 21 01.05063
 2018-Oct-11 05:34     04 31 20.889728 -33 21 01.08061
 2018-Oct-11 05:35     04 31 20.887869 -33 21 01.11060
 2018-Oct-11 05:36     04 31 20.886011 -33 21 01.14058
 2018-Oct-11 05:37     04 31 20.884152 -33 21 01.17056
 2018-Oct-11 05:38     04 31 20.882293 -33 21 01.20054
 2018-Oct-11 05:39     04 31 20.880434 -33 21 01.23051
 2018-Oct-11 05:40     04 31 20.878575 -33 21 01.26049
 2018-Oct-11 05:41     04 31 20.876715 -33 21 01.29046
 2018-Oct-11 05:42     04 31 20.874856 -33 21 01.32043
 2018-Oct-11 05:43     04 31 20.872996 -33 21 01.35040
 2018-Oct-11 05:44     04 31 20.871136 -33 21 01.38037
 2018-Oct-11 05:45     04 31 20.869276 -33 21 01.41034
 2018-Oct-11 05:46     04 31 20.867416 -33 21 01.44031
 2018-Oct-11 05:47     04 31 20.865556 -33 21 01.47027
 2018-Oct-11 05:48     04 31 20.863695 -33 21 01.50024
 2018-Oct-11 05:49     04 31 20.861834 -33 21 01.53020
 2018-Oct-11 05:50     04 31 20.859974 -33 21 01.56016
 2018-Oct-11 05:51     04 31 20.858113 -33 21 01.59011
 2018-Oct-11 05:52     04 31 20.856251 -33 21 01.62007
 2018-Oct-11 05:53     04 31 20.854390 -33 21 01.65003
 2018-Oct-11 05:54     04 31 20.852529 -33 21 01.67998
 2018-Oct-11 05:55     04 31 20.850667 -33 21 01.70993
 2018-Oct-11 05:56     04 31 20.848805 -33 21 01.73988
 2018-Oct-11 05:57     04 31 20.846944 -33 21 01.76983
 2018-Oct-11 05:58     04 31 20.845082 -33 21 01.79978
 2018-Oct-11 05:59     04 31 20.843219 -33 21 01.82972
 2018-Oct-11 06:00     04 31 20.841357 -33 21 01.85967
 2018-Oct-11 06:01     04 31 20.839495 -33 21 01.88961
 2018-Oct-11 06:02     04 31 20.837632 -33 21 01.91955
 2018-Oct-11 06:03     04 31 20.835769 -33 21 01.94949
 2018-Oct-11 06:04     04 31 20.833906 -33 21 01.97943
 2018-Oct-11 06:05     04 31 20.832043 -33 21 02.00936
 2018-Oct-11 06:06     04 31 20.830180 -33 21 02.03930
 2018-Oct-11 06:07     04 31 20.828317 -33 21 02.06923
 2018-Oct-11 06:08     04 31 20.826454 -33 21 02.09916
 2018-Oct-11 06:09     04 31 20.824590 -33 21 02.12909
 2018-Oct-11 06:10     04 31 20.822726 -33 21 02.15902
 2018-Oct-11 06:11     04 31 20.820862 -33 21 02.18895
 2018-Oct-11 06:12     04 31 20.818998 -33 21 02.21887
 2018-Oct-11 06:13     04 31 20.817134 -33 21 02.24880
 2018-Oct-11 06:14     04 31 20.815270 -33 21 02.27872
 2018-Oct-11 06:15     04 31 20.813406 -33 21 02.30864
 2018-Oct-11 06:16     04 31 20.811541 -33 21 02.33856
 2018-Oct-11 06:17     04 31 20.809677 -33 21 02.36847
 2018-Oct-11 06:18     04 31 20.807812 -33 21 02.39839
 2018-Oct-11 06:19     04 31 20.805947 -33 21 02.42830
 2018-Oct-11 06:20     04 31 20.804082 -33 21 02.45821
 2018-Oct-11 06:21     04 31 20.802217 -33 21 02.48812
 2018-Oct-11 06:22     04 31 20.800351 -33 21 02.51803
 2018-Oct-11 06:23     04 31 20.798486 -33 21 02.54794
 2018-Oct-11 06:24     04 31 20.796620 -33 21 02.57784
 2018-Oct-11 06:25     04 31 20.794755 -33 21 02.60775
 2018-Oct-11 06:26     04 31 20.792889 -33 21 02.63765
 2018-Oct-11 06:27     04 31 20.791023 -33 21 02.66755
 2018-Oct-11 06:28     04 31 20.789157 -33 21 02.69745
 2018-Oct-11 06:29     04 31 20.787291 -33 21 02.72734
 2018-Oct-11 06:30     04 31 20.785425 -33 21 02.75724
 2018-Oct-11 06:31     04 31 20.783558 -33 21 02.78713
 2018-Oct-11 06:32     04 31 20.781692 -33 21 02.81702
 2018-Oct-11 06:33     04 31 20.779825 -33 21 02.84691
 2018-Oct-11 06:34     04 31 20.777958 -33 21 02.87680
 2018-Oct-11 06:35     04 31 20.776092 -33 21 02.90669
 2018-Oct-11 06:36     04 31 20.774225 -33 21 02.93657
 2018-Oct-11 06:37     04 31 20.772358 -33 21 02.96646
 2018-Oct-11 06:38     04 31 20.770490 -33 21 02.99634
 2018-Oct-11 06:39     04 31 20.768623 -33 21 03.02622
 2018-Oct-11 06:40     04 31 20.766756 -33 21 03.05610
 2018-Oct-11 06:41     04 31 20.764888 -33 21 03.08597
 2018-Oct-11 06:42     04 31 20.763021 -33 21 03.11585
 2018-Oct-11 06:43     04 31 20.761153 -33 21 03.14572
 2018-Oct-11 06:44     04 31 20.759285 -33 21 03.17559
 2018-Oct-11 06:45     04 31 20.757417 -33 21 03.20546
 2018-Oct-11 06:46     04 31 20.755549 -33 21 03.23533
 2018-Oct-11 06:47     04 31 20.753681 -33 21 03.26520
 2018-Oct-11 06:48     04 31 20.751813 -33 21 03.29506
 2018-Oct-11 06:49     04 31 20.749944 -33 21 03.32492
 2018-Oct-11 06:50     04 31 20.748076 -33 21 03.35479
 2018-Oct-11 06:51     04 31 20.746207 -33 21 03.38464
 2018-Oct-11 06:52     04 31 20.744339 -33 21 03.41450
 2018-Oct-11 06:53     04 31 20.742470 -33 21 03.44436
 2018-Oct-11 06:54     04 31 20.740601 -33 21 03.47421
 2018-Oct-11 06:55     04 31 20.738732 -33 21 03.50407
 2018-Oct-11 06:56     04 31 20.736863 -33 21 03.53392
 2018-Oct-11 06:57     04 31 20.734994 -33 21 03.56376
 2018-Oct-11 06:58     04 31 20.733125 -33 21 03.59361
 2018-Oct-11 06:59     04 31 20.731255 -33 21 03.62346
 2018-Oct-11 07:00     04 31 20.729386 -33 21 03.65330
 2018-Oct-11 07:01     04 31 20.727517 -33 21 03.68314
 2018-Oct-11 07:02     04 31 20.725647 -33 21 03.71298
 2018-Oct-11 07:03     04 31 20.723777 -33 21 03.74282
 2018-Oct-11 07:04     04 31 20.721908 -33 21 03.77266
 2018-Oct-11 07:05     04 31 20.720038 -33 21 03.80249
 2018-Oct-11 07:06     04 31 20.718168 -33 21 03.83233
 2018-Oct-11 07:07     04 31 20.716298 -33 21 03.86216
 2018-Oct-11 07:08     04 31 20.714428 -33 21 03.89199
 2018-Oct-11 07:09     04 31 20.712557 -33 21 03.92182
